{
  "type": "FeatureCollection",
  "features": [
    {
      "type": "Feature",
      "properties": {
        "norad_id": 44333,
        "name": "AT&T T-16",
        "group": "intelsat",
        "lat": 0.02448418528245572,
        "lon": 146.68623709839733,
        "alt_km": 35783.57025737841,
        "timestamp": "2025-12-06T11:28:10.697254+00:00",
        "meta_object_name": "AT&T T-16",
        "meta_object_id": "2019-034A",
        "meta_epoch": "2025-12-05T21:46:40.325088",
        "meta_mean_motion": 1.00271318,
        "meta_eccentricity": 6.937e-05,
        "meta_inclination": 0.0289,
        "meta_ra_of_asc_node": 66.1436,
        "meta_arg_of_pericenter": 104.688,
        "meta_mean_anomaly": 129.9319,
        "meta_ephemeris_type": 0,
        "meta_classification_type": "U",
        "meta_norad_cat_id": 44333,
        "meta_element_set_no": 999,
        "meta_rev_at_epoch": 2369,
        "meta_bstar": 0,
        "meta_mean_motion_dot": -1.06e-06,
        "meta_mean_motion_ddot": 0,
        "tle_line1": "1 44333U 19034A   25339.90741117 -.00000106  00000+0  00000+0 0  9992",
        "tle_line2": "2 44333   0.0289  66.1436 0000693 104.6880 129.9319  1.00271318 23696"
      },
      "geometry": {
        "type": "Point",
        "coordinates": [
          146.68623709839733,
          0.02448418528245572
        ]
      }
    },
    {
      "type": "Feature",
      "properties": {
        "norad_id": 44476,
        "name": "INTELSAT 39 (IS-39)",
        "group": "intelsat",
        "lat": -0.013376208707677178,
        "lon": -50.50041036573337,
        "alt_km": 35789.5248356433,
        "timestamp": "2025-12-06T11:28:10.697265+00:00",
        "meta_object_name": "INTELSAT 39 (IS-39)",
        "meta_object_id": "2019-049B",
        "meta_epoch": "2025-12-05T21:34:38.508384",
        "meta_mean_motion": 1.00269956,
        "meta_eccentricity": 8.123e-05,
        "meta_inclination": 0.0172,
        "meta_ra_of_asc_node": 324.3569,
        "meta_arg_of_pericenter": 194.6692,
        "meta_mean_anomaly": 301.53,
        "meta_ephemeris_type": 0,
        "meta_classification_type": "U",
        "meta_norad_cat_id": 44476,
        "meta_element_set_no": 999,
        "meta_rev_at_epoch": 2319,
        "meta_bstar": 0,
        "meta_mean_motion_dot": 4.3e-07,
        "meta_mean_motion_ddot": 0,
        "tle_line1": "1 44476U 19049B   25339.89905681  .00000043  00000+0  00000+0 0  9991",
        "tle_line2": "2 44476   0.0172 324.3569 0000812 194.6692 301.5300  1.00269956 23192"
      },
      "geometry": {
        "type": "Point",
        "coordinates": [
          -50.50041036573337,
          -0.013376208707677178
        ]
      }
    },
    {
      "type": "Feature",
      "properties": {
        "norad_id": 46114,
        "name": "GALAXY 30 (G-30)",
        "group": "intelsat",
        "lat": 0.022799787270499177,
        "lon": 122.52551755062579,
        "alt_km": 35793.09854016885,
        "timestamp": "2025-12-06T11:28:10.697277+00:00",
        "meta_object_name": "GALAXY 30 (G-30)",
        "meta_object_id": "2020-056C",
        "meta_epoch": "2025-12-05T16:31:27.243264",
        "meta_mean_motion": 1.00270053,
        "meta_eccentricity": 0.00024837,
        "meta_inclination": 0.0157,
        "meta_ra_of_asc_node": 337.7386,
        "meta_arg_of_pericenter": 273.4815,
        "meta_mean_anomaly": 306.3852,
        "meta_ephemeris_type": 0,
        "meta_classification_type": "U",
        "meta_norad_cat_id": 46114,
        "meta_element_set_no": 999,
        "meta_rev_at_epoch": 1935,
        "meta_bstar": 0,
        "meta_mean_motion_dot": 4.7e-07,
        "meta_mean_motion_ddot": 0,
        "tle_line1": "1 46114U 20056C   25339.68850976  .00000047  00000+0  00000+0 0  9999",
        "tle_line2": "2 46114   0.0157 337.7386 0002483 273.4815 306.3852  1.00270053 19358"
      },
      "geometry": {
        "type": "Point",
        "coordinates": [
          122.52551755062579,
          0.022799787270499177
        ]
      }
    },
    {
      "type": "Feature",
      "properties": {
        "norad_id": 54026,
        "name": "GALAXY 33 (G-33)",
        "group": "intelsat",
        "lat": 0.028564741367621063,
        "lon": 114.53044457052974,
        "alt_km": 35793.27075571699,
        "timestamp": "2025-12-06T11:28:10.697288+00:00",
        "meta_object_name": "GALAXY 33 (G-33)",
        "meta_object_id": "2022-128A",
        "meta_epoch": "2025-12-05T16:22:38.561664",
        "meta_mean_motion": 1.00269755,
        "meta_eccentricity": 0.00022457,
        "meta_inclination": 0.0146,
        "meta_ra_of_asc_node": 29.2762,
        "meta_arg_of_pericenter": 219.9027,
        "meta_mean_anomaly": 298.2192,
        "meta_ephemeris_type": 0,
        "meta_classification_type": "U",
        "meta_norad_cat_id": 54026,
        "meta_element_set_no": 999,
        "meta_rev_at_epoch": 1180,
        "meta_bstar": 0,
        "meta_mean_motion_dot": 8.9e-07,
        "meta_mean_motion_ddot": 0,
        "tle_line1": "1 54026U 22128A   25339.68239076  .00000089  00000+0  00000+0 0  9990",
        "tle_line2": "2 54026   0.0146  29.2762 0002245 219.9027 298.2192  1.00269755 11809"
      },
      "geometry": {
        "type": "Point",
        "coordinates": [
          114.53044457052974,
          0.028564741367621063
        ]
      }
    },
    {
      "type": "Feature",
      "properties": {
        "norad_id": 54027,
        "name": "GALAXY 34 (G-34)",
        "group": "intelsat",
        "lat": 0.028357318298749566,
        "lon": 118.59377584548514,
        "alt_km": 35789.671471793816,
        "timestamp": "2025-12-06T11:28:10.697300+00:00",
        "meta_object_name": "GALAXY 34 (G-34)",
        "meta_object_id": "2022-128B",
        "meta_epoch": "2025-12-05T16:22:38.561664",
        "meta_mean_motion": 1.0026959,
        "meta_eccentricity": 0.00012876,
        "meta_inclination": 0.0211,
        "meta_ra_of_asc_node": 337.5147,
        "meta_arg_of_pericenter": 264.8288,
        "meta_mean_anomaly": 309.1125,
        "meta_ephemeris_type": 0,
        "meta_classification_type": "U",
        "meta_norad_cat_id": 54027,
        "meta_element_set_no": 999,
        "meta_rev_at_epoch": 1197,
        "meta_bstar": 0,
        "meta_mean_motion_dot": 0,
        "meta_mean_motion_ddot": 0,
        "tle_line1": "1 54027U 22128B   25339.68239076  .00000000  00000+0  00000+0 0  9994",
        "tle_line2": "2 54027   0.0211 337.5147 0001287 264.8288 309.1125  1.00269590 11971"
      },
      "geometry": {
        "type": "Point",
        "coordinates": [
          118.59377584548514,
          0.028357318298749566
        ]
      }
    },
    {
      "type": "Feature",
      "properties": {
        "norad_id": 54243,
        "name": "GALAXY 31 (G-31)",
        "group": "intelsat",
        "lat": 0.010695648611644293,
        "lon": 126.53614660793147,
        "alt_km": 35792.77679997782,
        "timestamp": "2025-12-06T11:28:10.697312+00:00",
        "meta_object_name": "GALAXY 31 (G-31)",
        "meta_object_id": "2022-153A",
        "meta_epoch": "2025-12-05T21:40:55.875072",
        "meta_mean_motion": 1.00270728,
        "meta_eccentricity": 0.00019764,
        "meta_inclination": 0.0153,
        "meta_ra_of_asc_node": 72.1314,
        "meta_arg_of_pericenter": 194.689,
        "meta_mean_anomaly": 12.3663,
        "meta_ephemeris_type": 0,
        "meta_classification_type": "U",
        "meta_norad_cat_id": 54243,
        "meta_element_set_no": 999,
        "meta_rev_at_epoch": 519,
        "meta_bstar": 0,
        "meta_mean_motion_dot": 2.2e-07,
        "meta_mean_motion_ddot": 0,
        "tle_line1": "1 54243U 22153A   25339.90342448  .00000022  00000+0  00000+0 0  9999",
        "tle_line2": "2 54243   0.0153  72.1314 0001976 194.6890  12.3663  1.00270728  5190"
      },
      "geometry": {
        "type": "Point",
        "coordinates": [
          126.53614660793147,
          0.010695648611644293
        ]
      }
    },
    {
      "type": "Feature",
      "properties": {
        "norad_id": 54244,
        "name": "GALAXY 32 (G-32)",
        "group": "intelsat",
        "lat": 0.0015865746646693123,
        "lon": 156.5711675116492,
        "alt_km": 35794.29143015011,
        "timestamp": "2025-12-06T11:28:10.697324+00:00",
        "meta_object_name": "GALAXY 32 (G-32)",
        "meta_object_id": "2022-153B",
        "meta_epoch": "2025-12-04T13:17:37.099104",
        "meta_mean_motion": 1.00275803,
        "meta_eccentricity": 0.00027886,
        "meta_inclination": 0.0107,
        "meta_ra_of_asc_node": 343.0801,
        "meta_arg_of_pericenter": 315.5746,
        "meta_mean_anomaly": 243.3847,
        "meta_ephemeris_type": 0,
        "meta_classification_type": "U",
        "meta_norad_cat_id": 54244,
        "meta_element_set_no": 999,
        "meta_rev_at_epoch": 1119,
        "meta_bstar": 0,
        "meta_mean_motion_dot": -1.6e-06,
        "meta_mean_motion_ddot": 0,
        "tle_line1": "1 54244U 22153B   25338.55390161 -.00000160  00000+0  00000+0 0  9999",
        "tle_line2": "2 54244   0.0107 343.0801 0002788 315.5746 243.3847  1.00275803 11193"
      },
      "geometry": {
        "type": "Point",
        "coordinates": [
          156.5711675116492,
          0.0015865746646693123
        ]
      }
    }
  ]
}